{
  "type": "FeatureCollection",
  "features": [
    {
      "type": "Feature",
      "properties": {
        "norad_id": 34420,
        "name": "COSMOS 2251 DEB",
        "group": "cosmos-2251-debris",
        "lat": 26.027606904283378,
        "lon": 101.85094335845757,
        "alt_km": 739.7426527002481,
        "timestamp": "2025-12-17T23:38:07.247723+00:00",
        "meta_object_name": "COSMOS 2251 DEB",
        "meta_object_id": "1993-036RM",
        "meta_epoch": "2025-12-17T10:58:35.740704",
        "meta_mean_motion": 14.68311777,
        "meta_eccentricity": 0.01064512,
        "meta_inclination": 74.0333,
        "meta_ra_of_asc_node": 94.8338,
        "meta_arg_of_pericenter": 214.857,
        "meta_mean_anomaly": 265.3657,
        "meta_ephemeris_type": 0,
        "meta_classification_type": "U",
        "meta_norad_cat_id": 34420,
        "meta_element_set_no": 999,
        "meta_rev_at_epoch": 89839,
        "meta_bstar": 0.00020122311,
        "meta_mean_motion_dot": 1.23e-05,
        "meta_mean_motion_ddot": 0,
        "tle_line1": "1 34420U 93036RM  25351.45735811  .00001230  00000+0  20122-3 0  9999",
        "tle_line2": "2 34420  74.0333  94.8338 0106451 214.8570 265.3657 14.68311777898390"
      },
      "geometry": {
        "type": "Point",
        "coordinates": [
          101.85094335845757,
          26.027606904283378
        ]
      }
    },
    {
      "type": "Feature",
      "properties": {
        "norad_id": 34425,
        "name": "COSMOS 2251 DEB",
        "group": "cosmos-2251-debris",
        "lat": -1.780842795424208,
        "lon": 43.953316584232965,
        "alt_km": 706.2328929400101,
        "timestamp": "2025-12-17T23:38:07.247733+00:00",
        "meta_object_name": "COSMOS 2251 DEB",
        "meta_object_id": "1993-036RS",
        "meta_epoch": "2025-12-17T13:47:28.662720",
        "meta_mean_motion": 14.62155576,
        "meta_eccentricity": 0.00245517,
        "meta_inclination": 74.0201,
        "meta_ra_of_asc_node": 45.2496,
        "meta_arg_of_pericenter": 170.4208,
        "meta_mean_anomaly": 189.7433,
        "meta_ephemeris_type": 0,
        "meta_classification_type": "U",
        "meta_norad_cat_id": 34425,
        "meta_element_set_no": 999,
        "meta_rev_at_epoch": 88811,
        "meta_bstar": 0.00039721686,
        "meta_mean_motion_dot": 1.977e-05,
        "meta_mean_motion_ddot": 0,
        "tle_line1": "1 34425U 93036RS  25351.57463730  .00001977  00000+0  39722-3 0  9999",
        "tle_line2": "2 34425  74.0201  45.2496 0024551 170.4208 189.7433 14.62155576888116"
      },
      "geometry": {
        "type": "Point",
        "coordinates": [
          43.953316584232965,
          -1.780842795424208
        ]
      }
    },
    {
      "type": "Feature",
      "properties": {
        "norad_id": 34429,
        "name": "COSMOS 2251 DEB",
        "group": "cosmos-2251-debris",
        "lat": 42.82584596015868,
        "lon": -38.87218174523647,
        "alt_km": 436.2523956918958,
        "timestamp": "2025-12-17T23:38:07.247743+00:00",
        "meta_object_name": "COSMOS 2251 DEB",
        "meta_object_id": "1993-036RW",
        "meta_epoch": "2025-12-17T14:01:04.035936",
        "meta_mean_motion": 15.43563566,
        "meta_eccentricity": 0.0009577,
        "meta_inclination": 73.9683,
        "meta_ra_of_asc_node": 157.4587,
        "meta_arg_of_pericenter": 357.2061,
        "meta_mean_anomaly": 71.704,
        "meta_ephemeris_type": 0,
        "meta_classification_type": "U",
        "meta_norad_cat_id": 34429,
        "meta_element_set_no": 999,
        "meta_rev_at_epoch": 89523,
        "meta_bstar": 0.0040488412,
        "meta_mean_motion_dot": 0.00186646,
        "meta_mean_motion_ddot": 0,
        "tle_line1": "1 34429U 93036RW  25351.58407449  .00186646  00000+0  40488-2 0  9996",
        "tle_line2": "2 34429  73.9683 157.4587 0009577 357.2061  71.7040 15.43563566895239"
      },
      "geometry": {
        "type": "Point",
        "coordinates": [
          -38.87218174523647,
          42.82584596015868
        ]
      }
    },
    {
      "type": "Feature",
      "properties": {
        "norad_id": 34430,
        "name": "COSMOS 2251 DEB",
        "group": "cosmos-2251-debris",
        "lat": 68.81954016763554,
        "lon": -18.756809181627354,
        "alt_km": 740.403372312584,
        "timestamp": "2025-12-17T23:38:07.247754+00:00",
        "meta_object_name": "COSMOS 2251 DEB",
        "meta_object_id": "1993-036RX",
        "meta_epoch": "2025-12-17T06:36:35.995968",
        "meta_mean_motion": 14.39647288,
        "meta_eccentricity": 0.00605227,
        "meta_inclination": 74.0519,
        "meta_ra_of_asc_node": 294.9926,
        "meta_arg_of_pericenter": 3.4907,
        "meta_mean_anomaly": 356.6657,
        "meta_ephemeris_type": 0,
        "meta_classification_type": "U",
        "meta_norad_cat_id": 34430,
        "meta_element_set_no": 999,
        "meta_rev_at_epoch": 88020,
        "meta_bstar": 0.00040733095,
        "meta_mean_motion_dot": 1.275e-05,
        "meta_mean_motion_ddot": 0,
        "tle_line1": "1 34430U 93036RX  25351.27541662  .00001275  00000+0  40733-3 0  9998",
        "tle_line2": "2 34430  74.0519 294.9926 0060522   3.4907 356.6657 14.39647288880209"
      },
      "geometry": {
        "type": "Point",
        "coordinates": [
          -18.756809181627354,
          68.81954016763554
        ]
      }
    },
    {
      "type": "Feature",
      "properties": {
        "norad_id": 34431,
        "name": "COSMOS 2251 DEB",
        "group": "cosmos-2251-debris",
        "lat": 45.58406828346571,
        "lon": -31.23749593064923,
        "alt_km": 745.0039844033854,
        "timestamp": "2025-12-17T23:38:07.247764+00:00",
        "meta_object_name": "COSMOS 2251 DEB",
        "meta_object_id": "1993-036RY",
        "meta_epoch": "2025-12-17T12:56:17.185056",
        "meta_mean_motion": 14.28790678,
        "meta_eccentricity": 0.00680723,
        "meta_inclination": 74.0737,
        "meta_ra_of_asc_node": 166.512,
        "meta_arg_of_pericenter": 150.9407,
        "meta_mean_anomaly": 209.5559,
        "meta_ephemeris_type": 0,
        "meta_classification_type": "U",
        "meta_norad_cat_id": 34431,
        "meta_element_set_no": 999,
        "meta_rev_at_epoch": 87211,
        "meta_bstar": 0.00056270025,
        "meta_mean_motion_dot": 1.428e-05,
        "meta_mean_motion_ddot": 0,
        "tle_line1": "1 34431U 93036RY  25351.53908779  .00001428  00000+0  56270-3 0  9997",
        "tle_line2": "2 34431  74.0737 166.5120 0068072 150.9407 209.5559 14.28790678872111"
      },
      "geometry": {
        "type": "Point",
        "coordinates": [
          -31.23749593064923,
          45.58406828346571
        ]
      }
    },
    {
      "type": "Feature",
      "properties": {
        "norad_id": 34432,
        "name": "COSMOS 2251 DEB",
        "group": "cosmos-2251-debris",
        "lat": 9.382312597958286,
        "lon": 95.83210093753291,
        "alt_km": 1012.5739966638039,
        "timestamp": "2025-12-17T23:38:07.247774+00:00",
        "meta_object_name": "COSMOS 2251 DEB",
        "meta_object_id": "1993-036RZ",
        "meta_epoch": "2025-12-17T10:14:25.781856",
        "meta_mean_motion": 14.02928381,
        "meta_eccentricity": 0.01821339,
        "meta_inclination": 73.829,
        "meta_ra_of_asc_node": 94.067,
        "meta_arg_of_pericenter": 176.0265,
        "meta_mean_anomaly": 256.679,
        "meta_ephemeris_type": 0,
        "meta_classification_type": "U",
        "meta_norad_cat_id": 34432,
        "meta_element_set_no": 999,
        "meta_rev_at_epoch": 85750,
        "meta_bstar": 0.00092843337,
        "meta_mean_motion_dot": 1.642e-05,
        "meta_mean_motion_ddot": 0,
        "tle_line1": "1 34432U 93036RZ  25351.42668729  .00001642  00000+0  92843-3 0  9998",
        "tle_line2": "2 34432  73.8290  94.0670 0182133 176.0265 256.6790 14.02928381857506"
      },
      "geometry": {
        "type": "Point",
        "coordinates": [
          95.83210093753291,
          9.382312597958286
        ]
      }
    },
    {
      "type": "Feature",
      "properties": {
        "norad_id": 34433,
        "name": "COSMOS 2251 DEB",
        "group": "cosmos-2251-debris",
        "lat": -38.75105887817367,
        "lon": -21.045271226960864,
        "alt_km": 802.6823586614928,
        "timestamp": "2025-12-17T23:38:07.247784+00:00",
        "meta_object_name": "COSMOS 2251 DEB",
        "meta_object_id": "1993-036SA",
        "meta_epoch": "2025-12-17T12:23:01.094496",
        "meta_mean_motion": 14.1287447,
        "meta_eccentricity": 0.01524523,
        "meta_inclination": 74.0097,
        "meta_ra_of_asc_node": 146.4792,
        "meta_arg_of_pericenter": 283.5329,
        "meta_mean_anomaly": 74.8866,
        "meta_ephemeris_type": 0,
        "meta_classification_type": "U",
        "meta_norad_cat_id": 34433,
        "meta_element_set_no": 999,
        "meta_rev_at_epoch": 86017,
        "meta_bstar": 0.00089141846,
        "meta_mean_motion_dot": 1.826e-05,
        "meta_mean_motion_ddot": 0,
        "tle_line1": "1 34433U 93036SA  25351.51598489  .00001826  00000+0  89142-3 0  9996",
        "tle_line2": "2 34433  74.0097 146.4792 0152452 283.5329  74.8866 14.12874470860179"
      },
      "geometry": {
        "type": "Point",
        "coordinates": [
          -21.045271226960864,
          -38.75105887817367
        ]
      }
    }
  ]
}